ADRAS-J                 
1 58992U 24034A   24157.52366650  .00004905  00000+0  45802-3 0  9997
2 58992  98.2107 130.0176 0045636  87.5374 273.1068 14.93886879 16128
